CCSDS_OMM_VERS = 2.0
CREATION_DATE  = 
ORIGINATOR     = 

OBJECT_NAME    = TWILIGHT AH
OBJECT_ID      = 2026-004AH
CENTER_NAME    = EARTH
REF_FRAME      = TEME
TIME_SYSTEM    = UTC
MEAN_ELEMENT_THEORY = SGP/SGP4

EPOCH          = 2026-02-03T13:14:57.068160
MEAN_MOTION    = 15.18239799
ECCENTRICITY   = .00107797
INCLINATION    = 97.4461
RA_OF_ASC_NODE = 35.5590
ARG_OF_PERICENTER = 83.7924
MEAN_ANOMALY   = 276.4537

EPHEMERIS_TYPE = 0
CLASSIFICATION_TYPE = U
NORAD_CAT_ID   = 67394
ELEMENT_SET_NO = 999
REV_AT_EPOCH   = 348
BSTAR          = .57036137E-3
MEAN_MOTION_DOT = .11636E-3
MEAN_MOTION_DDOT = 0

CCSDS_OMM_VERS = 2.0
CREATION_DATE  = 
ORIGINATOR     = 

OBJECT_NAME    = TWILIGHT AJ
OBJECT_ID      = 2026-004AJ
CENTER_NAME    = EARTH
REF_FRAME      = TEME
TIME_SYSTEM    = UTC
MEAN_ELEMENT_THEORY = SGP/SGP4

EPOCH          = 2026-02-03T13:09:08.238528
MEAN_MOTION    = 14.87795726
ECCENTRICITY   = .00047535
INCLINATION    = 97.8005
RA_OF_ASC_NODE = 35.3323
ARG_OF_PERICENTER = 192.5314
MEAN_ANOMALY   = 167.5785

EPHEMERIS_TYPE = 0
CLASSIFICATION_TYPE = U
NORAD_CAT_ID   = 67395
ELEMENT_SET_NO = 999
REV_AT_EPOCH   = 340
BSTAR          = .34233752E-3
MEAN_MOTION_DOT = .3073E-4
MEAN_MOTION_DDOT = 0

CCSDS_OMM_VERS = 2.0
CREATION_DATE  = 
ORIGINATOR     = 

OBJECT_NAME    = TWILIGHT AK
OBJECT_ID      = 2026-004AK
CENTER_NAME    = EARTH
REF_FRAME      = TEME
TIME_SYSTEM    = UTC
MEAN_ELEMENT_THEORY = SGP/SGP4

EPOCH          = 2026-02-03T13:23:53.146464
MEAN_MOTION    = 15.17811103
ECCENTRICITY   = .00088324
INCLINATION    = 97.4498
RA_OF_ASC_NODE = 35.5624
ARG_OF_PERICENTER = 83.2853
MEAN_ANOMALY   = 276.9386

EPHEMERIS_TYPE = 0
CLASSIFICATION_TYPE = U
NORAD_CAT_ID   = 67396
ELEMENT_SET_NO = 999
REV_AT_EPOCH   = 348
BSTAR          = .54941731E-3
MEAN_MOTION_DOT = .11062E-3
MEAN_MOTION_DDOT = 0

CCSDS_OMM_VERS = 2.0
CREATION_DATE  = 
ORIGINATOR     = 

OBJECT_NAME    = CARBSAR
OBJECT_ID      = 2026-004AL
CENTER_NAME    = EARTH
REF_FRAME      = TEME
TIME_SYSTEM    = UTC
MEAN_ELEMENT_THEORY = SGP/SGP4

EPOCH          = 2026-02-03T13:26:56.621184
MEAN_MOTION    = 15.17792976
ECCENTRICITY   = .00079327
INCLINATION    = 97.4519
RA_OF_ASC_NODE = 35.5666
ARG_OF_PERICENTER = 86.7502
MEAN_ANOMALY   = 273.4640

EPHEMERIS_TYPE = 0
CLASSIFICATION_TYPE = U
NORAD_CAT_ID   = 67397
ELEMENT_SET_NO = 999
REV_AT_EPOCH   = 348
BSTAR          = .59557912E-3
MEAN_MOTION_DOT = .1199E-3
MEAN_MOTION_DDOT = 0

CCSDS_OMM_VERS = 2.0
CREATION_DATE  = 
ORIGINATOR     = 

OBJECT_NAME    = TWILIGHT AM
OBJECT_ID      = 2026-004AM
CENTER_NAME    = EARTH
REF_FRAME      = TEME
TIME_SYSTEM    = UTC
MEAN_ELEMENT_THEORY = SGP/SGP4

EPOCH          = 2026-02-03T11:47:29.933088
MEAN_MOTION    = 15.17925052
ECCENTRICITY   = .00088082
INCLINATION    = 97.4556
RA_OF_ASC_NODE = 35.5167
ARG_OF_PERICENTER = 92.4024
MEAN_ANOMALY   = 267.8219

EPHEMERIS_TYPE = 0
CLASSIFICATION_TYPE = U
NORAD_CAT_ID   = 67398
ELEMENT_SET_NO = 999
REV_AT_EPOCH   = 347
BSTAR          = .46621811E-3
MEAN_MOTION_DOT = .9406E-4
MEAN_MOTION_DDOT = 0

CCSDS_OMM_VERS = 2.0
CREATION_DATE  = 
ORIGINATOR     = 

OBJECT_NAME    = TWILIGHT AN
OBJECT_ID      = 2026-004AN
CENTER_NAME    = EARTH
REF_FRAME      = TEME
TIME_SYSTEM    = UTC
MEAN_ELEMENT_THEORY = SGP/SGP4

EPOCH          = 2026-02-03T13:19:02.769888
MEAN_MOTION    = 15.18080488
ECCENTRICITY   = .00095349
INCLINATION    = 97.4545
RA_OF_ASC_NODE = 35.5810
ARG_OF_PERICENTER = 91.6140
MEAN_ANOMALY   = 268.6186

EPHEMERIS_TYPE = 0
CLASSIFICATION_TYPE = U
NORAD_CAT_ID   = 67399
ELEMENT_SET_NO = 999
REV_AT_EPOCH   = 348
BSTAR          = .54589383E-3
MEAN_MOTION_DOT = .11078E-3
MEAN_MOTION_DDOT = 0

CCSDS_OMM_VERS = 2.0
CREATION_DATE  = 
ORIGINATOR     = 

OBJECT_NAME    = CONNECTA IOT-13
OBJECT_ID      = 2026-004AP
CENTER_NAME    = EARTH
REF_FRAME      = TEME
TIME_SYSTEM    = UTC
MEAN_ELEMENT_THEORY = SGP/SGP4

EPOCH          = 2026-02-03T13:12:24.185952
MEAN_MOTION    = 15.18354220
ECCENTRICITY   = .0010998
INCLINATION    = 97.4545
RA_OF_ASC_NODE = 35.5862
ARG_OF_PERICENTER = 91.6099
MEAN_ANOMALY   = 268.6395

EPHEMERIS_TYPE = 0
CLASSIFICATION_TYPE = U
NORAD_CAT_ID   = 67400
ELEMENT_SET_NO = 999
REV_AT_EPOCH   = 348
BSTAR          = .35192273E-3
MEAN_MOTION_DOT = .7173E-4
MEAN_MOTION_DDOT = 0

CCSDS_OMM_VERS = 2.0
CREATION_DATE  = 
ORIGINATOR     = 

OBJECT_NAME    = CONNECTA IOT-14
OBJECT_ID      = 2026-004AQ
CENTER_NAME    = EARTH
REF_FRAME      = TEME
TIME_SYSTEM    = UTC
MEAN_ELEMENT_THEORY = SGP/SGP4

EPOCH          = 2026-02-03T11:35:12.773472
MEAN_MOTION    = 15.18476216
ECCENTRICITY   = .00114276
INCLINATION    = 97.4490
RA_OF_ASC_NODE = 35.5053
ARG_OF_PERICENTER = 84.6228
MEAN_ANOMALY   = 275.6310

EPHEMERIS_TYPE = 0
CLASSIFICATION_TYPE = U
NORAD_CAT_ID   = 67401
ELEMENT_SET_NO = 999
REV_AT_EPOCH   = 347
BSTAR          = .70935208E-3
MEAN_MOTION_DOT = .14595E-3
MEAN_MOTION_DDOT = 0

CCSDS_OMM_VERS = 2.0
CREATION_DATE  = 
ORIGINATOR     = 

OBJECT_NAME    = CONNECTA IOT-15
OBJECT_ID      = 2026-004AR
CENTER_NAME    = EARTH
REF_FRAME      = TEME
TIME_SYSTEM    = UTC
MEAN_ELEMENT_THEORY = SGP/SGP4

EPOCH          = 2026-02-03T13:44:33.999936
MEAN_MOTION    = 15.16831598
ECCENTRICITY   = .00048658
INCLINATION    = 97.4546
RA_OF_ASC_NODE = 35.5588
ARG_OF_PERICENTER = 76.0684
MEAN_ANOMALY   = 284.1090

EPHEMERIS_TYPE = 0
CLASSIFICATION_TYPE = U
NORAD_CAT_ID   = 67402
ELEMENT_SET_NO = 999
REV_AT_EPOCH   = 347
BSTAR          = .2478949E-3
MEAN_MOTION_DOT = .481E-4
MEAN_MOTION_DDOT = 0

CCSDS_OMM_VERS = 2.0
CREATION_DATE  = 
ORIGINATOR     = 

OBJECT_NAME    = SHIJIAN-29B (SJ-29B)
OBJECT_ID      = 2025-315C
CENTER_NAME    = EARTH
REF_FRAME      = TEME
TIME_SYSTEM    = UTC
MEAN_ELEMENT_THEORY = SGP/SGP4

EPOCH          = 2026-02-03T18:37:23.954016
MEAN_MOTION    = 1.00271694
ECCENTRICITY   = .0001952
INCLINATION    = 3.0602
RA_OF_ASC_NODE = 98.6023
ARG_OF_PERICENTER = 310.3496
MEAN_ANOMALY   = 77.4359

EPHEMERIS_TYPE = 0
CLASSIFICATION_TYPE = U
NORAD_CAT_ID   = 67403
ELEMENT_SET_NO = 999
REV_AT_EPOCH   = 35
BSTAR          = 0
MEAN_MOTION_DOT = -.75E-6
MEAN_MOTION_DDOT = 0

CCSDS_OMM_VERS = 2.0
CREATION_DATE  = 
ORIGINATOR     = 

OBJECT_NAME    = STARLINK-36484
OBJECT_ID      = 2026-005A
CENTER_NAME    = EARTH
REF_FRAME      = TEME
TIME_SYSTEM    = UTC
MEAN_ELEMENT_THEORY = SGP/SGP4

EPOCH          = 2026-02-03T14:00:01.999872
MEAN_MOTION    = 15.44553483
ECCENTRICITY   = .00014045
INCLINATION    = 42.9999
RA_OF_ASC_NODE = 73.7954
ARG_OF_PERICENTER = 276.2942
MEAN_ANOMALY   = 80.2662

EPHEMERIS_TYPE = 0
CLASSIFICATION_TYPE = U
NORAD_CAT_ID   = 67404
ELEMENT_SET_NO = 999
REV_AT_EPOCH   = 465
BSTAR          = -.48327223E-1
MEAN_MOTION_DOT = -.2043682E-1
MEAN_MOTION_DDOT = 0

CCSDS_OMM_VERS = 2.0
CREATION_DATE  = 
ORIGINATOR     = 

OBJECT_NAME    = STARLINK-36452
OBJECT_ID      = 2026-005B
CENTER_NAME    = EARTH
REF_FRAME      = TEME
TIME_SYSTEM    = UTC
MEAN_ELEMENT_THEORY = SGP/SGP4

EPOCH          = 2026-02-03T14:00:01.999872
MEAN_MOTION    = 15.50487631
ECCENTRICITY   = .00012322
INCLINATION    = 42.9998
RA_OF_ASC_NODE = 73.7554
ARG_OF_PERICENTER = 275.7594
MEAN_ANOMALY   = 97.2574

EPHEMERIS_TYPE = 0
CLASSIFICATION_TYPE = U
NORAD_CAT_ID   = 67405
ELEMENT_SET_NO = 999
REV_AT_EPOCH   = 465
BSTAR          = .21823143E-2
MEAN_MOTION_DOT = .129399E-2
MEAN_MOTION_DDOT = 0

