TWILIGHT AH             
1 67394U 26004AH  26034.55204940  .00011636  00000+0  57036-3 0  9995
2 67394  97.4461  35.5590 0010779  83.7924 276.4537 15.18239799  3489
TWILIGHT AJ             
1 67395U 26004AJ  26034.54801202  .00003073  00000+0  34234-3 0  9990
2 67395  97.8005  35.3323 0004753 192.5314 167.5785 14.87795726  3406
TWILIGHT AK             
1 67396U 26004AK  26034.55825401  .00011062  00000+0  54942-3 0  9994
2 67396  97.4498  35.5624 0008832  83.2853 276.9386 15.17811103  3483
CARBSAR                 
1 67397U 26004AL  26034.56037756  .00011990  00000+0  59558-3 0  9992
2 67397  97.4519  35.5666 0007932  86.7502 273.4640 15.17792976  3484
TWILIGHT AM             
1 67398U 26004AM  26034.49131867  .00009406  00000+0  46622-3 0  9990
2 67398  97.4556  35.5167 0008808  92.4024 267.8219 15.17925052  3479
TWILIGHT AN             
1 67399U 26004AN  26034.55489317  .00011078  00000+0  54589-3 0  9993
2 67399  97.4545  35.5810 0009534  91.6140 268.6186 15.18080488  3489
CONNECTA IOT-13         
1 67400U 26004AP  26034.55027993  .00007173  00000+0  35192-3 0  9994
2 67400  97.4545  35.5862 0010998  91.6099 268.6395 15.18354220  3488
CONNECTA IOT-14         
1 67401U 26004AQ  26034.48278673  .00014595  00000+0  70935-3 0  9990
2 67401  97.4490  35.5053 0011427  84.6228 275.6310 15.18476216  3478
CONNECTA IOT-15         
1 67402U 26004AR  26034.57261574  .00004810  00000+0  24789-3 0  9998
2 67402  97.4546  35.5588 0004865  76.0684 284.1090 15.16831598  3479
SHIJIAN-29B (SJ-29B)    
1 67403U 25315C   26034.77597169 -.00000075  00000+0  00000+0 0  9993
2 67403   3.0602  98.6023 0001952 310.3496  77.4359  1.00271694   357
STARLINK-36484          
1 67404U 26005A   26034.58335648 -.02043682  00000+0 -48327-1 0  9992
2 67404  42.9999  73.7954 0001404 276.2942  80.2662 15.44553483  4652
STARLINK-36452          
1 67405U 26005B   26034.58335648  .00129399  00000+0  21823-2 0  9992
2 67405  42.9998  73.7554 0001232 275.7594  97.2574 15.50487631  4652
